AMOS-17                 
1 44479U 19050A   22269.86299553  .00000113  00000+0  00000+0 0  9994
2 44479   0.0189 133.7007 0001857  50.5058 149.1213  1.00273361 11559
AEHF-5 (USA 292)        
1 44481U 19051A   22270.18366663  .00000084  00000+0  00000+0 0  9999
2 44481   4.1589 304.3475 0005301 225.5665 316.5975  1.00271159 11640
EUTELSAT 5 WEST B       
1 44624U 19067A   22270.38707469 -.00000038  00000+0  00000+0 0  9990
2 44624   0.0698 350.3957 0005972 154.1791 355.9465  1.00272811 10817
MEV-1                   
1 44625U 19067B   22268.44548774 -.00000202  00000+0  00000+0 0  9990
2 44625   0.0232 181.2548 0000957   8.2387 307.6411  1.00269989  9339
TJS-4                   
1 44637U 19070A   22270.13243859 -.00000167  00000+0  00000+0 0  9992
2 44637   0.0606 108.5906 0002819 235.0059 153.5463  1.00272308 10912
BEIDOU-3 IGSO-3         
1 44709U 19073A   22269.98118745 -.00000148  00000+0  10000-3 0  9995
2 44709  57.0998 295.3298 0027562 182.3955   1.3801  1.00278304 10815
TIBA-1                  
1 44800U 19080A   22270.46677581  .00000160  00000+0  00000+0 0  9996
2 44800   0.0574   5.0557 0002385 184.7048  20.0212  1.00271129 10456
INMARSAT GX5            
1 44801U 19080B   22270.53365848  .00000079  00000+0  00000+0 0  9994
2 44801   0.0176 315.9700 0002190 243.3245  10.1181  1.00273526 10462
JCSAT-18 (KACIFIC 1)    
1 44868U 19091A   22270.38729948 -.00000197  00000+0  00000+0 0  9999
2 44868   0.0460  35.5289 0000254 214.3494  45.7274  1.00271577 10462
ELEKTRO-L 3             
1 44903U 19095A   22270.47497264 -.00000094  00000+0  00000+0 0  9992
2 44903   0.0528  29.3188 0001483 147.3571  76.6382  1.00271617 10077
SHIJIAN-20 (SJ-20)      
1 44910U 19097A   22269.94840977  .00000160  00000+0  00000+0 0  9998
2 44910   1.4228  90.9307 0004066  64.1712 225.5584  1.00269645 10063
TJS-5                   
1 44978U 20002A   22270.59607706 -.00000339  00000+0  00000+0 0  9993
2 44978   0.2092 285.6156 0003600 244.1775 158.7026  1.00273305 10066
GSAT-30                 
1 45026U 20005A   22270.38869097 -.00000161  00000+0  00000+0 0  9994
2 45026   0.0345 243.3101 0002493 242.9371 102.8533  1.00270349  9907
EUTELSAT KONNECT        
1 45027U 20005B   22270.43521575  .00000054  00000+0  00000+0 0  9997
2 45027   0.0501  96.9838 0000352 197.7414 235.3717  1.00276033 10698
JCSAT-17                
1 45245U 20013A   22269.98467546 -.00000317  00000+0  00000+0 0  9996
2 45245   6.0624 345.7081 0003908 193.3950 317.1237  1.00270518  9612
GEO-KOMPSAT-2B          
1 45246U 20013B   22269.98310587 -.00000340  00000+0  00000+0 0  9995
2 45246   0.0426 322.4528 0001711 275.2380 250.2817  1.00271946  9620
BEIDOU-3 G2             
1 45344U 20017A   22270.47575744 -.00000138  00000+0  00000+0 0  9997
2 45344   2.0163 357.2104 0003991 156.5006 103.8726  1.00271252  9647
AEHF-6 (USA 298)        
1 45465U 20022B   22270.16010517 -.00000302  00000+0  00000+0 0  9998
2 45465   5.7156 302.0520 0045527 358.1827 261.0156  1.00267203  9358
BEIDOU-3 G3             
1 45807U 20040A   22269.81092205 -.00000352  00000+0  00000+0 0  9997
2 45807   1.2216 306.6093 0008383 336.3135 125.1345  1.00276097  8451
APSTAR 6D               
1 45863U 20045A   22269.49259687 -.00000315  00000+0  00000+0 0  9996
2 45863   0.0388 101.2344 0001886  45.9485 169.4657  1.00270581  8224
KOREASAT 116            
1 45920U 20048A   22270.54522736 -.00000358  00000+0  00000+0 0  9996
2 45920   0.0138 251.9319 0001060 295.1578 131.7370  1.00273478  8011
EXPRESS 103             
1 45985U 20053A   22269.54493774 -.00000278  00000+0  00000+0 0  9991
2 45985   0.0450 325.1048 0000194 314.3245  18.5947  1.00270897  8018
EXPRESS 80              
1 45986U 20053B   22268.76518083 -.00000134  00000+0  00000+0 0  9997
2 45986   0.0321 306.3234 0000511 331.0616  82.6318  1.00270026  8002
BSAT-4B                 
1 46112U 20056A   22269.75073497 -.00000347  00000+0  00000+0 0  9993
2 46112   0.0357 136.1521 0003442  27.9909 221.4958  1.00269731  7758
MEV-2                   
1 46113U 20056B   22268.20535536 -.00000011  00000+0  00000+0 0  9998
2 46113   0.0132 215.0544 0000863 342.2830 239.6250  1.00270958 66981
GALAXY 30 (G-30)        
1 46114U 20056C   22270.23070861  .00000041  00000+0  00000+0 0  9992
2 46114   0.0224 179.9778 0002333   7.2600 136.8134  1.00269797  7778
GAOFEN 13               
1 46610U 20071A   22270.59934551 -.00000359  00000+0  00000+0 0  9997
2 46610   0.2484 257.8369 0003115 288.8153 153.3151  1.00270010  7278
TIANTONG-1 2            
1 46916U 20082A   22270.55175959 -.00000356  00000+0  00000+0 0  9990
2 46916   3.8887 294.7828 0001664 263.9185 131.1263  1.00276354  7027
LUCAS (JDRS-1)          
1 47202U 20089A   22269.88846466 -.00000233  00000+0  00000+0 0  9992
2 47202   0.0282 122.3519 0001426  36.3276 257.6389  1.00271342  6783
SXM-7                   
1 47240U 20096A   22270.60535321 -.00000018  00000+0  00000+0 0  9990
2 47240   0.0420 278.0639 0001846  79.7167 111.2397  1.00269798  6716
CMS-01                  
1 47256U 20099A   22269.88062528 -.00000162  00000+0  00000+0 0  9992
2 47256   0.0415 110.6655 0006728 147.5134 147.5246  1.00270275  6568
TURKSAT 5A              
1 47306U 21001A   22270.34771654  .00000158  00000+0  00000+0 0  9996
2 47306   0.0137 134.2265 0000103 295.8578  92.1622  1.00272479  6363
TIANTONG-1 3            
1 47321U 21003A   22270.04554130 -.00000156  00000+0  00000+0 0  9999
2 47321   4.2131 308.1659 0003655 236.7820 278.8108  1.00271813  6349
TJS-6                   
1 47613U 21010A   22269.77795046  .00000044  00000+0  00000+0 0  9997
2 47613   0.4189 286.8640 0000818 348.3154 188.9050  1.00269894  6189
SBIRS GEO-5 (USA 315)   
1 48618U 21042A   22270.34771654  .00000114  00000+0  00000+0 0  9990
2 48618   7.1821 325.9706 0002393 215.4689 330.7597  1.00272859  5106
FENGYUN 4B              
1 48808U 21047A   22268.77826947 -.00000322  00000+0  00000+0 0  9998
2 48808   0.2155  87.8612 0001618 267.3058  62.5865  1.00263798  4936
SXM-8                   
1 48838U 21049A   22270.51456160 -.00000201  00000+0  00000+0 0  9990
2 48838   0.0388 304.1199 0000622  81.5984  80.6156  1.00272010  5008
TIANLIAN 1-05           
1 49011U 21063A   22269.81577222  .00000108  00000+0  00000+0 0  9999
2 49011   1.9193 282.1262 0003946 264.4291 129.4976  1.00271528  4450
STAR ONE D2             
1 49055U 21069A   22270.17818876 -.00000261  00000+0  00000+0 0  9998
2 49055   0.0326 163.4133 0002968  19.0534 177.5318  1.00268353  4288
EUTELSAT QUANTUM        
1 49056U 21069B   22269.68013799  .00000128  00000+0  00000+0 0  9995
2 49056   0.0322  56.6126 0001798 137.7732 103.6515  1.00274333  4293
CHINASAT 2E (ZX 2E)     
1 49062U 21071A   22270.04885491 -.00000288  00000+0  00000+0 0  9991
2 49062   0.0524 322.8603 0001751 329.5021 189.1201  1.00270217  4426
TJS-7                   
1 49115U 21077A   22269.82757644 -.00000228  00000+0  00000+0 0  9992
2 49115   0.0745 226.8306 0001191 329.9580 253.2080  1.00268439  4167
CHINASAT 9B             
1 49125U 21080A   22270.48003025 -.00000308  00000+0  00000+0 0  9997
2 49125   0.0237 136.4759 0003386  39.4131 104.5793  1.00269375  4007
SHIJIAN-21 (SJ-21)      
1 49330U 21094A   22269.94451096 -.00000242  00000+0  00000+0 0  9991
2 49330   8.6365  49.3869 0109182  17.1766  66.5962  1.00397608  3637
SES-17                  
1 49332U 21095A   22269.94421450 -.00000269  00000+0  00000+0 0  9994
2 49332   0.0120 145.3226 0001015  34.9861  98.2455  1.00269855  4202
SYRACUSE 4A             
1 49333U 21095B   22270.54063451  .00000139  00000+0  00000+0 0  9991
2 49333   0.0174 182.2258 0001565 359.5716  64.6417  1.00270276  4363
QZS-1R                  
1 49336U 21096A   22269.80674061 -.00000198  00000+0  00000+0 0  9993
2 49336  34.6620 100.2343 0744014 269.6810  60.2894  1.00289931  3389
CHINASAT 1D (ZX 1D)     
1 49505U 21114A   22269.91160391 -.00000335  00000+0  00000+0 0  9993
2 49505   1.2244 277.9781 0001492 276.5533 269.4856  1.00269645  3192
STPSAT-6                
1 49817U 21118A   22270.51001667 -.00000042  00000+0  00000+0 0  9996
2 49817   0.0443  23.3589 0000851 200.7682 214.1188  1.00271973  2952
LDPE-1                  
1 49818U 21118B   22270.49503409 -.00000249  00000+0  00000+0 0  9994
2 49818   0.6214  99.1089 0003053 124.5013 253.5480  1.01202472  2961
EXPRESS AMU-7           
1 50001U 21123A   22270.29997131 -.00000239  00000+0  00000+0 0  9992
2 50001   0.0477 314.2721 0000334 343.1496 321.6548  1.00271830  2919
EXPRESS AMU-3           
1 50002U 21123B   22269.69867404 -.00000319  00000+0  00000+0 0  9993
2 50002   0.0376 299.6486 0000759 349.2183  71.1501  1.00271653  2877
TIANLIAN 2-02           
1 50005U 21124A   22269.77638086 -.00000014  00000+0  00000+0 0  9990
2 50005   2.2938 281.3576 0002494 233.7951 300.8974  1.00273934  2986
TURKSAT 5B              
1 50212U 21126A   22270.53984971  .00000150  00000+0  00000+0 0  9995
2 50212   0.0778 336.1258 0002063 325.3205 301.2240  1.00272446  2665
INMARSAT 6-F1           
1 50319U 21128A   22270.45421895 -.00000201  00000+0  00000+0 0  9995
2 50319   0.0591 283.5737 0000221   4.8627 213.3428  1.00270540  2613
SHIYAN 12 01 (SY-12 01) 
1 50321U 21129A   22269.93104885  .00000158  00000+0  00000+0 0  9997
2 50321   0.1852 130.4716 0000328 252.7888 351.8041  1.00395406  2860
SHIYAN 12 02 (SY-12 02) 
1 50322U 21129B   22269.93953413 -.00000149  00000+0  00000+0 0  9998
2 50322   0.1840 130.6687 0002477 123.1046 242.8713  1.00390103  2876
TJS-9                   
1 50574U 21135A   22270.20014748 -.00000295  00000+0  00000+0 0  9997
2 50574   0.0257 117.1896 0001712 272.3348 185.7059  1.00275156  2835
USA 324                 
1 51280U 22006A   22270.31490314 -.00000028  00000+0  00000+0 0  9993
2 51280   0.0210 126.1225 0000711 260.6087  85.5383  1.00421472  2485
USA 325                 
1 51281U 22006B   22270.31490314 -.00000027  00000+0  00000+0 0  9993
2 51281   0.1950  95.3137 0000988 282.6928  94.4065  1.00419078  2486
